NORAD_CAT_ID,OBJECT_NAME,OBJECT_TYPE,EPOCH,MEAN_MOTION,ECCENTRICITY,INCLINATION,RA_OF_ASC_NODE,ARG_OF_PERICENTER,MEAN_ANOMALY,BSTAR,MEAN_MOTION_DOT,MEAN_MOTION_DDOT,TLE_LINE0,TLE_LINE1,TLE_LINE2,SEMIMAJOR_AXIS,PERIOD,APOGEE,PERIGEE,DECAYED
53575.0,STARLINK-4551,PAYLOAD,2023-02-22 03:38:11,15.08859815,0.000157,53.2195,3.7978,103.1126,257.0041,0.0007295,0.00011347,0.0,0 STARLINK-4551,1 53575U 22101BA  23053.15151682  .00011347  00000-0  72950-3 0  9995,2 53575  53.2195   3.7978 0001570 103.1126 257.0041 15.08859815 28642,6917.82,95.436,540.771,538.599,0.0
53575.0,STARLINK-4551,PAYLOAD,2023-02-22 06:48:57,15.08867444,0.000151,53.2192,3.2024,99.4191,260.6972,0.00090713,0.00014189,0.0,0 STARLINK-4551,1 53575U 22101BA  23053.28399424  .00014189  00000-0  90713-3 0  9991,2 53575  53.2192   3.2024 0001510  99.4191 260.6972 15.08867444 29358,6917.797,95.436,540.706,538.617,0.0
53575.0,STARLINK-4551,PAYLOAD,2023-02-22 21:07:25,15.0882783,0.0001229,53.2188,0.5274,103.2385,256.8745,-0.00039675,-6.594e-05,0.0,0 STARLINK-4551,1 53575U 22101BA  23053.88016185 -.00006594  00000-0 -39675-3 0  9990,2 53575  53.2188   0.5274 0001229 103.2385 256.8745 15.08827830 29446,6917.918,95.438,540.633,538.932,0.0
53575.0,STARLINK-4551,PAYLOAD,2023-02-23 03:28:58,15.0883172,0.0001037,53.2185,359.3382,91.5527,268.5584,-7.7729e-05,-1.524e-05,0.0,0 STARLINK-4551,1 53575U 22101BA  23054.14512573 -.00001524  00000-0 -77729-4 0  9993,2 53575  53.2185 359.3382 0001037  91.5527 268.5584 15.08831720 28793,6917.906,95.438,540.488,539.053,0.0
53575.0,STARLINK-4551,PAYLOAD,2023-02-23 05:04:21,15.08835106,0.0001084,53.2185,359.0405,92.8862,267.2254,-5.287e-06,-3.72e-06,0.0,0 STARLINK-4551,1 53575U 22101BA  23054.21136487 -.00000372  00000-0 -52870-5 0  9998,2 53575  53.2185 359.0405 0001084  92.8862 267.2254 15.08835106 29494,6917.895,95.438,540.51,539.01,0.0
53575.0,STARLINK-4551,PAYLOAD,2023-02-23 19:22:50,15.08844602,0.0001031,53.2183,356.3648,92.5593,267.5517,0.00024386,3.596e-05,0.0,0 STARLINK-4551,1 53575U 22101BA  23054.80752354  .00003596  00000-0  24386-3 0  9998,2 53575  53.2183 356.3648 0001031  92.5593 267.5517 15.08844602 29587,6917.866,95.437,540.445,539.018,0.0
53575.0,STARLINK-4551,PAYLOAD,2023-02-23 22:33:36,15.08850263,9.75e-05,53.2183,355.7705,90.1734,269.937,0.00067842,0.00010529,0.0,0 STARLINK-4551,1 53575U 22101BA  23054.94000384  .00010529  00000-0  67842-3 0  9990,2 53575  53.2183 355.7705 0000975  90.1734 269.9370 15.08850263 28910,6917.849,95.437,540.389,539.04,0.0
53575.0,STARLINK-4551,PAYLOAD,2023-02-24 04:55:08,15.08876165,9.16e-05,53.218,354.581,91.867,268.2427,0.0015134,0.00023904,0.0,0 STARLINK-4551,1 53575U 22101BA  23055.20495790  .00023904  00000-0  15134-2 0  9996,2 53575  53.2180 354.5810 0000916  91.8670 268.2427 15.08876165 28951,6917.77,95.435,540.269,539.001,0.0
53575.0,STARLINK-4551,PAYLOAD,2023-02-24 20:49:00,15.08847936,0.0001055,53.2173,351.6073,88.4497,271.6616,0.00033074,4.981e-05,0.0,0 STARLINK-4551,1 53575U 22101BA  23055.86736250  .00004981  00000-0  33074-3 0  9995,2 53575  53.2173 351.6073 0001055  88.4497 271.6616 15.08847936 29050,6917.856,95.437,540.451,538.991,0.0
53575.0,STARLINK-4551,PAYLOAD,2023-02-25 04:45:56,15.08838316,0.0001097,53.2172,350.1208,97.4547,262.657,0.00090718,0.00014179,0.0,0 STARLINK-4551,1 53575U 22101BA  23056.19856562  .00014179  00000-0  90718-3 0  9999,2 53575  53.2172 350.1208 0001097  97.4547 262.6570 15.08838316 29102,6917.886,95.438,540.509,538.992,0.0
53575.0,STARLINK-4551,PAYLOAD,2023-02-26 01:25:57,15.08842803,0.0001046,53.2168,346.2541,106.6992,253.4114,0.00062071,9.605e-05,0.0,0 STARLINK-4551,1 53575U 22101BA  23057.05968867  .00009605  00000-0  62071-3 0  9996,2 53575  53.2168 346.2541 0001046 106.6992 253.4114 15.08842803 29236,6917.872,95.437,540.46,539.013,0.0
53575.0,STARLINK-4551,PAYLOAD,2023-02-26 04:36:43,15.08849097,0.0001052,53.2165,345.659,102.4602,257.6508,0.00078525,0.00012234,0.0,0 STARLINK-4551,1 53575U 22101BA  23057.19216755  .00012234  00000-0  78525-3 0  9996,2 53575  53.2165 345.6590 0001052 102.4602 257.6508 15.08849097 29942,6917.853,95.437,540.445,538.99,0.0
53575.0,STARLINK-4551,PAYLOAD,2023-02-27 04:27:29,15.08871689,0.0001223,53.2171,341.1965,101.6251,258.4879,0.001026,0.00016093,0.0,0 STARLINK-4551,1 53575U 22101BA  23058.18575680  .00016093  00000-0  10260-2 0  9999,2 53575  53.2171 341.1965 0001223 101.6251 258.4879 15.08871689 29400,6917.784,95.436,540.495,538.802,0.0
53575.0,STARLINK-4551,PAYLOAD,2023-02-28 01:07:28,15.08884251,0.0001344,53.2175,337.3302,97.5961,262.5184,0.00061263,9.487e-05,0.0,0 STARLINK-4551,1 53575U 22101BA  23059.04685641  .00009487  00000-0  61263-3 0  9993,2 53575  53.2175 337.3302 0001344  97.5961 262.5184 15.08884251 29539,6917.745,95.435,540.54,538.68,0.0
53575.0,STARLINK-4551,PAYLOAD,2023-02-28 04:18:14,15.08902199,0.0001289,53.2172,336.7372,100.9584,259.1553,0.0011526,0.00018134,0.0,0 STARLINK-4551,1 53575U 22101BA  23059.17933018  .00018134  00000-0  11526-2 0  9996,2 53575  53.2172 336.7372 0001289 100.9584 259.1553 15.08902199 29550,6917.69,95.434,540.447,538.664,0.0
53575.0,STARLINK-4551,PAYLOAD,2023-02-28 21:47:30,15.08818945,0.0001537,53.2184,333.4674,108.9197,251.1962,-0.00079588,-0.00012925,0.0,0 STARLINK-4551,1 53575U 22101BA  23059.90798823 -.00012925  00000-0 -79588-3 0  9997,2 53575  53.2184 333.4674 0001537 108.9197 251.1962 15.08818945 30357,6917.945,95.439,540.873,538.746,0.0
53575.0,STARLINK-4551,PAYLOAD,2023-03-01 02:33:40,15.08814139,0.0001338,53.2184,332.5774,68.9191,291.1944,-0.00069513,-0.00011326,0.0,0 STARLINK-4551,1 53575U 22101BA  23060.10671658 -.00011326  00000-0 -69513-3 0  9998,2 53575  53.2184 332.5774 0001338  68.9191 291.1944 15.08814139 29696,6917.959,95.439,540.75,538.899,0.0
53575.0,STARLINK-4551,PAYLOAD,2023-03-01 05:44:26,15.08823333,0.00014,53.2168,331.9831,76.4805,283.6343,-0.0004443,-7.349e-05,0.0,0 STARLINK-4551,1 53575U 22101BA  23060.23919688 -.00007349  00000-0 -44430-3 0  9991,2 53575  53.2168 331.9831 0001400  76.4805 283.6343 15.08823333 29719,6917.931,95.439,540.765,538.828,0.0
53575.0,STARLINK-4551,PAYLOAD,2023-03-01 21:38:18,15.08828366,0.00013,53.2177,329.0089,66.2581,293.8547,0.00015458,2.172e-05,0.0,0 STARLINK-4551,1 53575U 22101BA  23060.90160495  .00002172  00000-0  15458-3 0  9994,2 53575  53.2177 329.0089 0001300  66.2581 293.8547 15.08828366 30508,6917.916,95.438,540.68,538.882,0.0
53575.0,STARLINK-4551,PAYLOAD,2023-03-02 02:24:28,15.08849544,0.0001422,53.2172,328.116,65.1779,294.9361,0.0015723,0.0002483,0.0,0 STARLINK-4551,1 53575U 22101BA  23061.10032839  .00024830  00000-0  15723-2 0  9996,2 53575  53.2172 328.1160 0001422  65.1779 294.9361 15.08849544 29847,6917.851,95.437,540.7,538.732,0.0
53575.0,STARLINK-4551,PAYLOAD,2023-03-02 18:18:19,15.0885105,0.0001308,53.2171,325.1439,65.6851,294.4278,0.0012965,0.00020412,0.0,0 STARLINK-4551,1 53575U 22101BA  23061.76273082  .00020412  00000-0  12965-2 0  9992,2 53575  53.2171 325.1439 0001308  65.6851 294.4278 15.08851050 29949,6917.847,95.437,540.616,538.807,0.0
53575.0,STARLINK-4551,PAYLOAD,2023-03-03 02:15:15,15.08867238,0.0001286,53.217,323.6573,72.542,287.5713,0.0017994,0.00028487,0.0,0 STARLINK-4551,1 53575U 22101BA  23062.09392653  .00028487  00000-0  17994-2 0  9992,2 53575  53.2170 323.6573 0001286  72.5420 287.5713 15.08867238 30689,6917.797,95.436,540.552,538.773,0.0
53575.0,STARLINK-4551,PAYLOAD,2023-03-03 16:33:43,15.08877879,0.0001294,53.2172,320.9797,86.3794,273.7346,0.0020563,0.00032624,0.0,0 STARLINK-4551,1 53575U 22101BA  23062.69008190  .00032624  00000-0  20563-2 0  9992,2 53575  53.2172 320.9797 0001294  86.3794 273.7346 15.08877879 30080,6917.765,95.435,540.525,538.734,0.0
53575.0,STARLINK-4551,PAYLOAD,2023-03-03 21:19:52,15.08877618,5.79e-05,53.2173,320.0874,44.0801,316.0237,0.0021477,0.00034094,0.0,0 STARLINK-4551,1 53575U 22101BA  23062.88879815  .00034094  00000-0  21477-2 0  9991,2 53575  53.2173 320.0874 0000579  44.0801 316.0237 15.08877618 30804,6917.765,95.435,540.031,539.23,0.0
53575.0,STARLINK-4551,PAYLOAD,2023-03-04 03:41:23,15.08896541,7.06e-05,53.2171,318.8982,101.5859,258.5212,0.0023215,0.0003691,0.0,0 STARLINK-4551,1 53575U 22101BA  23063.15374944  .00036910  00000-0  23215-2 0  9996,2 53575  53.2171 318.8982 0000706 101.5859 258.5212 15.08896541 30158,6917.708,95.434,540.061,539.084,0.0
53575.0,STARLINK-4551,PAYLOAD,2023-03-04 05:16:46,15.08905343,6.93e-05,53.2171,318.6002,99.527,260.5801,0.0025723,0.00040962,0.0,0 STARLINK-4551,1 53575U 22101BA  23063.21998645  .00040962  00000-0  25723-2 0  9991,2 53575  53.2171 318.6002 0000693  99.5270 260.5801 15.08905343 30852,6917.681,95.433,540.025,539.066,0.0
53575.0,STARLINK-4551,PAYLOAD,2023-03-04 19:35:16,15.08831438,8.3e-05,53.2162,315.9249,105.8043,254.304,0.00098817,0.0001547,0.0,0 STARLINK-4551,1 53575U 22101BA  23063.81616379  .00015470  00000-0  98817-3 0  9999,2 53575  53.2162 315.9249 0000830 105.8043 254.3040 15.08831438 30250,6917.907,95.438,540.346,539.197,0.0
53575.0,STARLINK-4551,PAYLOAD,2023-03-04 22:46:03,15.08823037,5.18e-05,53.2161,315.3307,109.6621,250.4427,0.0030258,0.00048174,0.0,0 STARLINK-4551,1 53575U 22101BA  23063.94864893  .00048174  00000-0  30258-2 0  9990,2 53575  53.2161 315.3307 0000518 109.6621 250.4427 15.08823037 30965,6917.932,95.439,540.156,539.439,0.0
53575.0,STARLINK-4551,PAYLOAD,2023-03-05 01:56:49,15.08837913,6.93e-05,53.2162,314.7358,113.0952,247.0114,0.0031878,0.00050809,0.0,0 STARLINK-4551,1 53575U 22101BA  23064.08112955  .00050809  00000-0  31878-2 0  9998,2 53575  53.2162 314.7358 0000693 113.0952 247.0114 15.08837913 30294,6917.887,95.438,540.231,539.272,0.0
53575.0,STARLINK-4551,PAYLOAD,2023-03-05 21:01:27,15.08860565,9.79e-05,53.2166,311.1661,121.1965,238.9123,0.0025469,0.00040502,0.0,0 STARLINK-4551,1 53575U 22101BA  23064.87601548  .00040502  00000-0  25469-2 0  9994,2 53575  53.2166 311.1661 0000979 121.1965 238.9123 15.08860565 30419,6917.818,95.436,540.36,539.005,0.0
